{
  "type": "FeatureCollection",
  "features": [
    {
      "type": "Feature",
      "properties": {
        "norad_id": 50032,
        "name": "COSMOS 1408 DEB",
        "group": "cosmos-1408-debris",
        "lat": -21.06731591030337,
        "lon": -125.32199449330614,
        "alt_km": 424.2574074616932,
        "timestamp": "2025-12-19T06:59:44.178954+00:00",
        "meta_object_name": "COSMOS 1408 DEB",
        "meta_object_id": "1982-092RU",
        "meta_epoch": "2025-12-18T14:35:30.154560",
        "meta_mean_motion": 15.45751534,
        "meta_eccentricity": 0.00158163,
        "meta_inclination": 82.5642,
        "meta_ra_of_asc_node": 52.4947,
        "meta_arg_of_pericenter": 186.4952,
        "meta_mean_anomaly": 173.6095,
        "meta_ephemeris_type": 0,
        "meta_classification_type": "U",
        "meta_norad_cat_id": 50032,
        "meta_element_set_no": 999,
        "meta_rev_at_epoch": 22694,
        "meta_bstar": 8.736421e-05,
        "meta_mean_motion_dot": 4.285e-05,
        "meta_mean_motion_ddot": 0,
        "tle_line1": "1 50032U 82092RU  25352.60798790  .00004285  00000+0  87364-4 0  9994",
        "tle_line2": "2 50032  82.5642  52.4947 0015816 186.4952 173.6095 15.45751534226940"
      },
      "geometry": {
        "type": "Point",
        "coordinates": [
          -125.32199449330614,
          -21.06731591030337
        ]
      }
    },
    {
      "type": "Feature",
      "properties": {
        "norad_id": 50058,
        "name": "COSMOS 1408 DEB",
        "group": "cosmos-1408-debris",
        "lat": 58.707599708674216,
        "lon": -129.8411073000569,
        "alt_km": 361.2455012979999,
        "timestamp": "2025-12-19T06:59:44.178976+00:00",
        "meta_object_name": "COSMOS 1408 DEB",
        "meta_object_id": "1982-092SW",
        "meta_epoch": "2025-12-18T13:35:52.596672",
        "meta_mean_motion": 15.6444692,
        "meta_eccentricity": 0.00161966,
        "meta_inclination": 82.6131,
        "meta_ra_of_asc_node": 63.2424,
        "meta_arg_of_pericenter": 78.9589,
        "meta_mean_anomaly": 281.3491,
        "meta_ephemeris_type": 0,
        "meta_classification_type": "U",
        "meta_norad_cat_id": 50058,
        "meta_element_set_no": 999,
        "meta_rev_at_epoch": 22895,
        "meta_bstar": 0.00028591151,
        "meta_mean_motion_dot": 0.00027692,
        "meta_mean_motion_ddot": 0,
        "tle_line1": "1 50058U 82092SW  25352.56658098  .00027692  00000+0  28591-3 0  9996",
        "tle_line2": "2 50058  82.6131  63.2424 0016196  78.9589 281.3491 15.64446920228956"
      },
      "geometry": {
        "type": "Point",
        "coordinates": [
          -129.8411073000569,
          58.707599708674216
        ]
      }
    },
    {
      "type": "Feature",
      "properties": {
        "norad_id": 50404,
        "name": "COSMOS 1408 DEB",
        "group": "cosmos-1408-debris",
        "lat": 47.36387752043525,
        "lon": 19.76258981460241,
        "alt_km": 433.1320037212372,
        "timestamp": "2025-12-19T06:59:44.178990+00:00",
        "meta_object_name": "COSMOS 1408 DEB",
        "meta_object_id": "1982-092ADS",
        "meta_epoch": "2025-12-18T14:33:17.055360",
        "meta_mean_motion": 15.14678102,
        "meta_eccentricity": 0.01696438,
        "meta_inclination": 82.2037,
        "meta_ra_of_asc_node": 209.023,
        "meta_arg_of_pericenter": 178.8165,
        "meta_mean_anomaly": 181.3506,
        "meta_ephemeris_type": 0,
        "meta_classification_type": "U",
        "meta_norad_cat_id": 50404,
        "meta_element_set_no": 999,
        "meta_rev_at_epoch": 21282,
        "meta_bstar": 0.0025991893,
        "meta_mean_motion_dot": 0.00069718,
        "meta_mean_motion_ddot": 0,
        "tle_line1": "1 50404U 82092ADS 25352.60644740  .00069718  00000+0  25992-2 0  9991",
        "tle_line2": "2 50404  82.2037 209.0230 0169643 178.8165 181.3506 15.14678102212822"
      },
      "geometry": {
        "type": "Point",
        "coordinates": [
          19.76258981460241,
          47.36387752043525
        ]
      }
    },
    {
      "type": "Feature",
      "properties": {
        "norad_id": 50621,
        "name": "COSMOS 1408 DEB",
        "group": "cosmos-1408-debris",
        "lat": -39.004954571189636,
        "lon": 61.291920299658884,
        "alt_km": 422.14477613142026,
        "timestamp": "2025-12-19T06:59:44.179001+00:00",
        "meta_object_name": "COSMOS 1408 DEB",
        "meta_object_id": "1982-092ALR",
        "meta_epoch": "2025-12-18T11:06:47.508768",
        "meta_mean_motion": 15.56954115,
        "meta_eccentricity": 0.00290327,
        "meta_inclination": 82.5704,
        "meta_ra_of_asc_node": 68.2218,
        "meta_arg_of_pericenter": 131.6099,
        "meta_mean_anomaly": 228.7651,
        "meta_ephemeris_type": 0,
        "meta_classification_type": "U",
        "meta_norad_cat_id": 50621,
        "meta_element_set_no": 999,
        "meta_rev_at_epoch": 22339,
        "meta_bstar": 0.0003366426,
        "meta_mean_motion_dot": 0.00024798,
        "meta_mean_motion_ddot": 0,
        "tle_line1": "1 50621U 82092ALR 25352.46304987  .00024798  00000+0  33664-3 0  9997",
        "tle_line2": "2 50621  82.5704  68.2218 0029032 131.6099 228.7651 15.56954115223396"
      },
      "geometry": {
        "type": "Point",
        "coordinates": [
          61.291920299658884,
          -39.004954571189636
        ]
      }
    }
  ]
}